OSCAR 7 (AO-7)          
1 07530U 74089B   23265.55630172 -.00000027  00000+0  11862-3 0  9990
2 07530 101.9576 252.9212 0011858 237.1371 245.9969 12.53667156235372
PHASE 3B (AO-10)        
1 14129U 83058B   23265.38715058 -.00000326  00000+0  00000+0 0  9996
2 14129  27.4089  21.5169 6035289 206.4069 102.9024  2.05872584274926
UOSAT 2 (UO-11)         
1 14781U 84021B   23265.55333023  .00002564  00000+0  30451-3 0  9990
2 14781  97.6687 238.7866 0006643 235.5487 124.5101 14.85277835108596
LUSAT (LO-19)           
1 20442U 90005G   23265.48490748  .00000347  00000+0  14293-3 0  9993
2 20442  98.8550 244.1300 0010631 252.3157 107.6866 14.33318924759282
EYESAT A (AO-27)        
1 22825U 93061C   23265.58351800  .00000210  00000+0  98282-4 0  9991
2 22825  98.8319 310.0016 0009182 138.6710 221.5168 14.30347642564213
ITAMSAT (IO-26)         
1 22826U 93061D   23265.56223174  .00000231  00000+0  10574-3 0  9992
2 22826  98.8264 309.8418 0009896 125.9301 234.2800 14.30713487564489
RADIO ROSTO (RS-15)     
1 23439U 94085A   23265.47212433 -.00000036  00000+0  19507-3 0  9995
2 23439  64.8137 118.3465 0159524 193.0070 166.6715 11.27575646183295
JAS-2 (FO-29)           
1 24278U 96046B   23265.49655048  .00000048  00000+0  83331-4 0  9990
2 24278  98.5408 230.8411 0350462 164.3580 196.8725 13.53154243338097
TECHSAT 1B (GO-32)      
1 25397U 98043D   23265.47332437  .00000214  00000+0  11327-3 0  9994
2 25397  98.8794 223.8151 0001040 159.5915 200.5305 14.23911651309173
ISS (ZARYA)             
1 25544U 98067A   23265.68632531  .00017921  00000+0  32638-3 0  9996
2 25544  51.6421 205.5868 0005726  48.4399  16.1408 15.49538923416912
PCSAT (NO-44)           
1 26931U 01043C   23265.49341302  .00000278  00000+0  13716-3 0  9990
2 26931  67.0510 305.5627 0007352 258.8362 101.1913 14.30986213147501
SAUDISAT 1C (SO-50)     
1 27607U 02058C   23265.56727944  .00002169  00000+0  31355-3 0  9996
2 27607  64.5566 326.3182 0058520 204.1377 155.6983 14.77643703116619
CUTE-1 (CO-55)          
1 27844U 03031E   23265.57531889  .00000595  00000+0  28434-3 0  9998
2 27844  98.6808 271.4210 0009356 197.0755 163.0109 14.22881579 49583
CUBESAT XI-IV (CO-57)   
1 27848U 03031J   23265.26864544  .00000492  00000+0  24081-3 0  9995
2 27848  98.6842 271.4959 0008949 214.2187 145.8415 14.22377926 49307
MOZHAYETS 4 (RS-22)     
1 27939U 03042A   23265.56260512  .00002298  00000+0  40305-3 0  9999
2 27939  98.2571  53.3482 0012356 183.9329 247.9243 14.68698793 68704
CUBESAT XI-V            
1 28895U 05043F   23264.59233744  .00002781  00000+0  51483-3 0  9999
2 28895  98.1665  36.0060 0017196 126.5648 233.7141 14.66044012954939
CUTE-1.7+APD II (CO-65) 
1 32785U 08021C   23265.39807605  .00005524  00000+0  53439-3 0  9994
2 32785  97.7172 229.3744 0013325 133.3773 226.8559 14.93101168835324
DELFI-C3 (DO-64)        
1 32789U 08021G   23265.57754885  .00160232  00000+0  24395-2 0  9995
2 32789  97.2926 287.4056 0008589 122.6244 237.5839 15.53908944842413
SEEDS II (CO-66)        
1 32791U 08021J   23265.37326267  .00007976  00000+0  67950-3 0  9995
2 32791  97.6656 234.7004 0013154  86.1549 274.1177 14.97964471836200
YUBILEINY (RS-30)       
1 32953U 08025A   23265.50662180  .00000038  00000+0  20591-3 0  9993
2 32953  82.4980 256.5559 0018990 336.0625  23.9570 12.43129302695603
KKS-1 (KISEKI)          
1 33499U 09002H   23265.59582061  .00002252  00000+0  32403-3 0  9998
2 33499  98.1587 159.1118 0007283 277.5292  82.5090 14.77384357788442
SWISSCUBE               
1 35932U 09051B   23265.58276515  .00001733  00000+0  38792-3 0  9999
2 35932  98.5054 138.1930 0008716  68.6667 291.5461 14.57976839743406
BEESAT-1                
1 35933U 09051C   23265.55182085  .00001519  00000+0  34217-3 0  9995
2 35933  98.4982 139.3883 0006977  79.6064 280.5920 14.57853269743472
ITUPSAT1                
1 35935U 09051E   23265.10662478  .00001366  00000+0  31527-3 0  9998
2 35935  98.5082 138.8418 0009261  85.5169 274.7086 14.56883787743076
XIWANG-1 (HOPE-1)       
1 36122U 09072B   23265.44476667 -.00000004  00000+0  10355-3 0  9995
2 36122 100.2497 226.2959 0007643   4.9384 355.1803 13.16387566661590
JUGNU                   
1 37839U 11058B   23265.28413453  .00000618  00000+0  18551-3 0  9990
2 37839  19.9605 253.8054 0018754 209.3662 179.5614 14.13010896617530
SRMSAT                  
1 37841U 11058D   23265.54571887  .00000559  00000+0  16184-3 0  9992
2 37841  19.9733 341.3675 0011981  22.3266  98.7893 14.10944999616576
M-CUBED & EXP-1 PRIME   
1 37855U 11061F   23265.55698811  .00036122  00000+0  97218-3 0  9991
2 37855 101.7103 282.6504 0107523 100.7264 260.6090 15.32061100651440
STRAND-1                
1 39090U 13009E   23265.50666654  .00000567  00000+0  21091-3 0  9993
2 39090  98.3868  96.1984 0008571 341.9209  18.1671 14.35693593553680
BEESAT-3                
1 39135U 13015F   23265.58681040  .00099196  00000+0  14813-2 0  9993
2 39135  64.8550   7.7052 0016057 262.3822  97.5498 15.54357367577014
BEESAT-2                
1 39136U 13015G   23265.55862883  .00078744  00000+0  14127-2 0  9991
2 39136  64.8658  21.4570 0027221 267.5140  92.2885 15.49049343576711
ZACUBE-1 (TSHEPISOSAT)  
1 39417U 13066B   23265.44105523  .00006272  00000+0  70934-3 0  9994
2 39417  97.6955 223.7926 0053085 329.4763  30.3366 14.85783077531632
GOMX-1                  
1 39430U 13066Q   23265.50803390  .00003655  00000+0  63114-3 0  9997
2 39430  97.7642 150.9348 0145378  25.9143 334.9247 14.62259964523570
CUBEBUG-2 (LO-74)       
1 39440U 13066AA  23265.40622791  .00005328  00000+0  67529-3 0  9994
2 39440  97.7789 211.0587 0076206  71.2369 289.7092 14.80097209528532
FUNCUBE-1 (AO-73)       
1 39444U 13066AE  23265.35411309  .00006869  00000+0  74220-3 0  9990
2 39444  97.6817 226.3515 0050713 313.8204  45.8825 14.87689592530082
UWE-3                   
1 39446U 13066AG  23265.42713446  .00006051  00000+0  72706-3 0  9997
2 39446  97.7437 217.1877 0065427  22.5739 337.8330 14.82785446528832
SPROUT                  
1 39770U 14029E   23265.33842903  .00030870  00000+0  20678-2 0  9994
2 39770  97.9957  35.8329 0005496 339.4497  20.6507 15.06821958506766
UNISAT-6                
1 40012U 14033C   23265.47416127  .00004119  00000+0  57110-3 0  9999
2 40012  97.6811  74.8147 0056305 100.0616 260.6954 14.77368459498136
DUCHIFAT-1              
1 40021U 14033M   23265.43085616  .00010139  00000+0  82817-3 0  9991
2 40021  98.0659 232.6695 0010490 310.1287  49.9015 14.99565876503753
QB50P1                  
1 40025U 14033R   23265.42410682  .00006699  00000+0  61846-3 0  9994
2 40025  98.0046 214.0202 0010342 343.7703  16.3184 14.94929337502661
ZDPS 2A                 
1 40901U 15049C   23265.54208180  .00082200  00000+0  13242-2 0  9994
2 40901  97.4376 283.5552 0009026 122.9461 237.2661 15.52620234444294
ZDPS 2B                 
1 40902U 15049D   23265.57555059  .00093998  00000+0  13711-2 0  9995
2 40902  97.4495 282.4835 0009030 122.6338 237.5789 15.55318533444310
KAITUO 1A               
1 40904U 15049F   23265.53578408  .00020904  00000+0  72999-3 0  9997
2 40904  97.5002 271.9804 0010474 179.1765 180.9494 15.29557621443172
2015-049G               
1 40905U 15049G   23265.55224829  .00009430  00000+0  41058-3 0  9998
2 40905  97.5278 268.1296 0012440 195.6439 164.4414 15.22373083442761
XW-2C                   
1 40906U 15049H   23265.55529264  .00016656  00000+0  59131-3 0  9999
2 40906  97.4956 273.1951 0011450 166.7394 193.4149 15.29057175443268
XW-2D                   
1 40907U 15049J   23265.56353964  .00021239  00000+0  69628-3 0  9998
2 40907  97.4931 274.0387 0010834 157.7398 202.4315 15.31599016443370
LILACSAT-2              
1 40908U 15049K   23265.50131022  .00008083  00000+0  36702-3 0  9991
2 40908  97.5292 268.3812 0012714 202.9279 157.1390 15.20982106442586
XW-2E                   
1 40909U 15049L   23265.54576843  .00049890  00000+0  10348-2 0  9998
2 40909  97.4497 281.4868 0009963 121.7762 238.4458 15.45511895444149
XW-2F                   
1 40910U 15049M   23265.58747331  .00050476  00000+0  10742-2 0  9996
2 40910  97.4594 280.7871 0010563 124.4372 235.7877 15.44745828444015
XW-2B                   
1 40911U 15049N   23265.57524715  .00021014  00000+0  69483-3 0  9998
2 40911  97.4909 274.4229 0010739 159.2393 200.9286 15.31325459443250
KAITUO 1B               
1 40912U 15049P   23265.53318355  .00078711  00000+0  12165-2 0  9996
2 40912  97.4098 285.8524 0009952  90.1345 270.1049 15.53775221444672
LAPAN-A2                
1 40931U 15052B   23264.70002965  .00001488  00000+0  11572-3 0  9995
2 40931   6.0038 117.4934 0013366 225.8517 134.0511 14.77363796431538
E-ST@R-II               
1 41459U 16025D   23265.53305089  .00046145  00000+0  11102-2 0  9994
2 41459  98.1743 117.1342 0094637 118.2750 242.8083 15.36538937407816
AIST-2D (RS-48)         
1 41465U 16026B   23265.55874192  .00043151  00000+0  46346-3 0  9993
2 41465  96.9795 135.4174 0004644 207.2198 152.8819 15.63650203415150
NUSAT-1 (FRESCO)        
1 41557U 16033B   23265.57575181  .00269340  00000+0  12744-2 0  9995
2 41557  97.3858  18.6654 0003201 196.8100 163.3064 15.82291579408896
BEESAT-4                
1 41619U 16040W   23265.09710583  .03570428  22894-5  15660-2 0  9992
2 41619  97.1257 317.6234 0009184 250.5399 109.4900 16.22395145392134
CAS-2T & KS-1Q          
1 41847U 16066G   23265.17810514  .00001572  00000+0  24334-3 0  9991
2 41847  98.4956 333.2489 0357426 266.3384  89.6873 14.40020211360766
ZHUHAI-1 02 (CAS-4B)    
1 42759U 17034B   23265.55406016  .00011629  00000+0  55134-3 0  9996
2 42759  43.0154 293.7044 0010782   6.2759 353.8223 15.19239782346435
ZHUHAI-1 01 (CAS-4A)    
1 42761U 17034D   23265.56971892  .00011180  00000+0  53018-3 0  9990
2 42761  43.0148 292.1352 0011470   7.3744 352.7272 15.19255247346433
MAX VALIER SAT          
1 42778U 17036P   23265.54962788  .00030379  00000+0  66610-3 0  9995
2 42778  97.1449 298.3743 0009531 106.9264 253.3030 15.43980289347724
